{
  "type": "FeatureCollection",
  "features": [
    {
      "type": "Feature",
      "properties": {
        "norad_id": 66436,
        "name": "STARLINK-35501",
        "group": "last-30-days",
        "lat": -18.062536101152357,
        "lon": -71.09581094794866,
        "alt_km": 416.5457074048363,
        "timestamp": "2025-12-05T16:54:13.485251+00:00",
        "meta_object_name": "STARLINK-35501",
        "meta_object_id": "2025-259Q",
        "meta_epoch": "2025-12-05T00:00:02.999808",
        "meta_mean_motion": 15.50586469,
        "meta_eccentricity": 0.0001752,
        "meta_inclination": 43.0007,
        "meta_ra_of_asc_node": 92.539,
        "meta_arg_of_pericenter": 269.0372,
        "meta_mean_anomaly": 321.9252,
        "meta_ephemeris_type": 0,
        "meta_classification_type": "U",
        "meta_norad_cat_id": 66436,
        "meta_element_set_no": 999,
        "meta_rev_at_epoch": 503,
        "meta_bstar": -0.00092574678,
        "meta_mean_motion_dot": -0.00054291,
        "meta_mean_motion_ddot": 0,
        "tle_line1": "1 66436U 25259Q   25339.00003472 -.00054291  00000+0 -92575-3 0  9999",
        "tle_line2": "2 66436  43.0007  92.5390 0001752 269.0372 321.9252 15.50586469  5034"
      },
      "geometry": {
        "type": "Point",
        "coordinates": [
          -71.09581094794866,
          -18.062536101152357
        ]
      }
    },
    {
      "type": "Feature",
      "properties": {
        "norad_id": 66437,
        "name": "STARLINK-35474",
        "group": "last-30-days",
        "lat": -19.292841728561115,
        "lon": -69.5219301989546,
        "alt_km": 416.77959868686867,
        "timestamp": "2025-12-05T16:54:13.485260+00:00",
        "meta_object_name": "STARLINK-35474",
        "meta_object_id": "2025-259R",
        "meta_epoch": "2025-12-05T00:00:02.999808",
        "meta_mean_motion": 15.50616065,
        "meta_eccentricity": 0.00015318,
        "meta_inclination": 43.0007,
        "meta_ra_of_asc_node": 92.5341,
        "meta_arg_of_pericenter": 273.3566,
        "meta_mean_anomaly": 319.5146,
        "meta_ephemeris_type": 0,
        "meta_classification_type": "U",
        "meta_norad_cat_id": 66437,
        "meta_element_set_no": 999,
        "meta_rev_at_epoch": 503,
        "meta_bstar": -0.0013836442,
        "meta_mean_motion_dot": -0.00080788,
        "meta_mean_motion_ddot": 0,
        "tle_line1": "1 66437U 25259R   25339.00003472 -.00080788  00000+0 -13836-2 0  9992",
        "tle_line2": "2 66437  43.0007  92.5341 0001531 273.3566 319.5146 15.50616065  5030"
      },
      "geometry": {
        "type": "Point",
        "coordinates": [
          -69.5219301989546,
          -19.292841728561115
        ]
      }
    },
    {
      "type": "Feature",
      "properties": {
        "norad_id": 66438,
        "name": "STARLINK-34681",
        "group": "last-30-days",
        "lat": -20.50418303810522,
        "lon": -67.93106827502733,
        "alt_km": 416.6414127703647,
        "timestamp": "2025-12-05T16:54:13.485269+00:00",
        "meta_object_name": "STARLINK-34681",
        "meta_object_id": "2025-259S",
        "meta_epoch": "2025-12-05T00:00:02.999808",
        "meta_mean_motion": 15.50607171,
        "meta_eccentricity": 0.00015784,
        "meta_inclination": 43.0007,
        "meta_ra_of_asc_node": 92.5293,
        "meta_arg_of_pericenter": 264.8555,
        "meta_mean_anomaly": 329.932,
        "meta_ephemeris_type": 0,
        "meta_classification_type": "U",
        "meta_norad_cat_id": 66438,
        "meta_element_set_no": 999,
        "meta_rev_at_epoch": 492,
        "meta_bstar": -0.0010505396,
        "meta_mean_motion_dot": -0.00061551,
        "meta_mean_motion_ddot": 0,
        "tle_line1": "1 66438U 25259S   25339.00003472 -.00061551  00000+0 -10505-2 0  9990",
        "tle_line2": "2 66438  43.0007  92.5293 0001578 264.8555 329.9320 15.50607171  4925"
      },
      "geometry": {
        "type": "Point",
        "coordinates": [
          -67.93106827502733,
          -20.50418303810522
        ]
      }
    },
    {
      "type": "Feature",
      "properties": {
        "norad_id": 66439,
        "name": "STARLINK-35327",
        "group": "last-30-days",
        "lat": -16.85064780545239,
        "lon": -72.6075392751239,
        "alt_km": 416.4641384144934,
        "timestamp": "2025-12-05T16:54:13.485277+00:00",
        "meta_object_name": "STARLINK-35327",
        "meta_object_id": "2025-259T",
        "meta_epoch": "2025-12-05T00:00:02.999808",
        "meta_mean_motion": 15.50608503,
        "meta_eccentricity": 0.00016148,
        "meta_inclination": 43.0006,
        "meta_ra_of_asc_node": 92.5456,
        "meta_arg_of_pericenter": 267.7138,
        "meta_mean_anomaly": 321.3225,
        "meta_ephemeris_type": 0,
        "meta_classification_type": "U",
        "meta_norad_cat_id": 66439,
        "meta_element_set_no": 999,
        "meta_rev_at_epoch": 503,
        "meta_bstar": -0.0011237973,
        "meta_mean_motion_dot": -0.00065788,
        "meta_mean_motion_ddot": 0,
        "tle_line1": "1 66439U 25259T   25339.00003472 -.00065788  00000+0 -11238-2 0  9991",
        "tle_line2": "2 66439  43.0006  92.5456 0001614 267.7138 321.3225 15.50608503  5039"
      },
      "geometry": {
        "type": "Point",
        "coordinates": [
          -72.6075392751239,
          -16.85064780545239
        ]
      }
    },
    {
      "type": "Feature",
      "properties": {
        "norad_id": 66440,
        "name": "STARLINK-35405",
        "group": "last-30-days",
        "lat": -21.690325503792764,
        "lon": -66.32845478250611,
        "alt_km": 416.8414066852065,
        "timestamp": "2025-12-05T16:54:13.485288+00:00",
        "meta_object_name": "STARLINK-35405",
        "meta_object_id": "2025-259U",
        "meta_epoch": "2025-12-05T00:00:02.999808",
        "meta_mean_motion": 15.50594995,
        "meta_eccentricity": 0.00014967,
        "meta_inclination": 43.0006,
        "meta_ra_of_asc_node": 92.5251,
        "meta_arg_of_pericenter": 271.4204,
        "meta_mean_anomaly": 325.2944,
        "meta_ephemeris_type": 0,
        "meta_classification_type": "U",
        "meta_norad_cat_id": 66440,
        "meta_element_set_no": 999,
        "meta_rev_at_epoch": 503,
        "meta_bstar": -0.00089389837,
        "meta_mean_motion_dot": -0.00052462,
        "meta_mean_motion_ddot": 0,
        "tle_line1": "1 66440U 25259U   25339.00003472 -.00052462  00000+0 -89390-3 0  9993",
        "tle_line2": "2 66440  43.0006  92.5251 0001496 271.4204 325.2944 15.50594995  5038"
      },
      "geometry": {
        "type": "Point",
        "coordinates": [
          -66.32845478250611,
          -21.690325503792764
        ]
      }
    },
    {
      "type": "Feature",
      "properties": {
        "norad_id": 66441,
        "name": "STARLINK-35426",
        "group": "last-30-days",
        "lat": -22.86145320660614,
        "lon": -64.69934024718476,
        "alt_km": 416.94532801998866,
        "timestamp": "2025-12-05T16:54:13.485298+00:00",
        "meta_object_name": "STARLINK-35426",
        "meta_object_id": "2025-259V",
        "meta_epoch": "2025-12-05T00:00:02.999808",
        "meta_mean_motion": 15.50594833,
        "meta_eccentricity": 0.00015885,
        "meta_inclination": 43.0007,
        "meta_ra_of_asc_node": 92.5201,
        "meta_arg_of_pericenter": 275.4914,
        "meta_mean_anomaly": 323.1388,
        "meta_ephemeris_type": 0,
        "meta_classification_type": "U",
        "meta_norad_cat_id": 66441,
        "meta_element_set_no": 999,
        "meta_rev_at_epoch": 503,
        "meta_bstar": -0.00089023433,
        "meta_mean_motion_dot": -0.0005225,
        "meta_mean_motion_ddot": 0,
        "tle_line1": "1 66441U 25259V   25339.00003472 -.00052250  00000+0 -89023-3 0  9992",
        "tle_line2": "2 66441  43.0007  92.5201 0001588 275.4914 323.1388 15.50594833  5039"
      },
      "geometry": {
        "type": "Point",
        "coordinates": [
          -64.69934024718476,
          -22.86145320660614
        ]
      }
    },
    {
      "type": "Feature",
      "properties": {
        "norad_id": 66442,
        "name": "STARLINK-34724",
        "group": "last-30-days",
        "lat": -24.016394589533054,
        "lon": -63.040090181032426,
        "alt_km": 416.9998097301568,
        "timestamp": "2025-12-05T16:54:13.485306+00:00",
        "meta_object_name": "STARLINK-34724",
        "meta_object_id": "2025-259W",
        "meta_epoch": "2025-12-05T00:00:02.999808",
        "meta_mean_motion": 15.50621701,
        "meta_eccentricity": 0.00014465,
        "meta_inclination": 43.0006,
        "meta_ra_of_asc_node": 92.5157,
        "meta_arg_of_pericenter": 268.1024,
        "meta_mean_anomaly": 332.4356,
        "meta_ephemeris_type": 0,
        "meta_classification_type": "U",
        "meta_norad_cat_id": 66442,
        "meta_element_set_no": 999,
        "meta_rev_at_epoch": 503,
        "meta_bstar": -0.0014917954,
        "meta_mean_motion_dot": -0.00087024,
        "meta_mean_motion_ddot": 0,
        "tle_line1": "1 66442U 25259W   25339.00003472 -.00087024  00000+0 -14918-2 0  9990",
        "tle_line2": "2 66442  43.0006  92.5157 0001446 268.1024 332.4356 15.50621701  5036"
      },
      "geometry": {
        "type": "Point",
        "coordinates": [
          -63.040090181032426,
          -24.016394589533054
        ]
      }
    }
  ]
}